{"type": "FeatureCollection", "features": [ {"type": "Feature", "properties": {"norad_id": 41836, "name": "HIMAWARI-9", "group": "weather", "lat": -0.011511931079711194, "lon": 5.948592874607445, "alt_km": 35785.80147468938, "timestamp": "2025-12-27T08:36:18.008539+00:00", "meta": {"OBJECT_NAME": "HIMAWARI-9", "OBJECT_ID": "2016-064A", "EPOCH": "2025-12-27T00:52:38.599104", "MEAN_MOTION": 1.00270173, "ECCENTRICITY": 8.96e-05, "INCLINATION": 0.0131, "RA_OF_ASC_NODE": 83.7635, "ARG_OF_PERICENTER": 204.0016, "MEAN_ANOMALY": 321.9511, "EPHEMERIS_TYPE": 0, "CLASSIFICATION_TYPE": "U", "NORAD_CAT_ID": 41836, "ELEMENT_SET_NO": 999, "REV_AT_EPOCH": 3348, "BSTAR": 0, "MEAN_MOTION_DOT": -2.53e-06, "MEAN_MOTION_DDOT": 0}, "tle": {"line1": "1 41836U 16064A   25361.03655786 -.00000253  00000+0  00000+0 0  9995", "line2": "2 41836   0.0131  83.7635 0000896 204.0016 321.9511  1.00270173 33488"}}, "geometry": {"type": "Point", "coordinates": [5.948592874607445, -0.011511931079711194]}}, {"type": "Feature", "properties": {"norad_id": 41866, "name": "GOES 16", "group": "weather", "lat": 0.043991715239541526, "lon": 120.47697990773331, "alt_km": 35797.951771857835, "timestamp": "2025-12-27T08:36:18.008551+00:00", "meta": {"OBJECT_NAME": "GOES 16", "OBJECT_ID": "2016-071A", "EPOCH": "2025-12-27T04:27:00.371808", "MEAN_MOTION": 1.00271577, "ECCENTRICITY": 0.0003296, "INCLINATION": 0.0809, "RA_OF_ASC_NODE": 100.6164, "ARG_OF_PERICENTER": 167.6787, "MEAN_ANOMALY": 149.7154, "EPHEMERIS_TYPE": 0, "CLASSIFICATION_TYPE": "U", "NORAD_CAT_ID": 41866, "ELEMENT_SET_NO": 999, "REV_AT_EPOCH": 3337, "BSTAR": 0, "MEAN_MOTION_DOT": -6.9e-07, "MEAN_MOTION_DDOT": 0}, "tle": {"line1": "1 41866U 16071A   25361.18542097 -.00000069  00000+0  00000+0 0  9997", "line2": "2 41866   0.0809 100.6164 0003296 167.6787 149.7154  1.00271577 33371"}}, "geometry": {"type": "Point", "coordinates": [120.47697990773331, 0.043991715239541526]}}, {"type": "Feature", "properties": {"norad_id": 41882, "name": "FENGYUN 4A", "group": "weather", "lat": -1.8877127022773548, "lon": -11.261696605742134, "alt_km": 35799.53934672272, "timestamp": "2025-12-27T08:36:18.008563+00:00", "meta": {"OBJECT_NAME": "FENGYUN 4A", "OBJECT_ID": "2016-077A", "EPOCH": "2025-12-26T09:22:21.494784", "MEAN_MOTION": 1.00262391, "ECCENTRICITY": 0.0004534, "INCLINATION": 1.8816, "RA_OF_ASC_NODE": 82.2577, "ARG_OF_PERICENTER": 143.1389, "MEAN_ANOMALY": 133.8992, "EPHEMERIS_TYPE": 0, "CLASSIFICATION_TYPE": "U", "NORAD_CAT_ID": 41882, "ELEMENT_SET_NO": 999, "REV_AT_EPOCH": 3319, "BSTAR": 0, "MEAN_MOTION_DOT": -3.36e-06, "MEAN_MOTION_DDOT": 0}, "tle": {"line1": "1 41882U 16077A   25360.39052656 -.00000336  00000+0  00000+0 0  9997", "line2": "2 41882   1.8816  82.2577 0004534 143.1389 133.8992  1.00262391 33190"}}, "geometry": {"type": "Point", "coordinates": [-11.261696605742134, -1.8877127022773548]}}, {"type": "Feature", "properties": {"norad_id": 41884, "name": "CYGFM05", "group": "weather", "lat": -30.463669947768846, "lon": -171.06086256558362, "alt_km": 421.0432113351353, "timestamp": "2025-12-27T08:36:18.008588+00:00", "meta": {"OBJECT_NAME": "CYGFM05", "OBJECT_ID": "2016-078A", "EPOCH": "2025-12-27T04:28:04.537632", "MEAN_MOTION": 15.48195074, "ECCENTRICITY": 0.0010291, "INCLINATION": 34.96, "RA_OF_ASC_NODE": 312.7275, "ARG_OF_PERICENTER": 307.1889, "MEAN_ANOMALY": 52.7893, "EPHEMERIS_TYPE": 0, "CLASSIFICATION_TYPE": "U", "NORAD_CAT_ID": 41884, "ELEMENT_SET_NO": 999, "REV_AT_EPOCH": 50200, "BSTAR": 0.00044895, "MEAN_MOTION_DOT": 0.0002443, "MEAN_MOTION_DDOT": 0}, "tle": {"line1": "1 41884U 16078A   25361.18616363  .00024430  00000+0  44895-3 0  9993", "line2": "2 41884  34.9600 312.7275 0010291 307.1889  52.7893 15.48195074502000"}}, "geometry": {"type": "Point", "coordinates": [-171.06086256558362, -30.463669947768846]}}, {"type": "Feature", "properties": {"norad_id": 41885, "name": "CYGFM04", "group": "weather", "lat": -34.88103243154416, "lon": -166.94562007313422, "alt_km": 413.46877630890776, "timestamp": "2025-12-27T08:36:18.008605+00:00", "meta": {"OBJECT_NAME": "CYGFM04", "OBJECT_ID": "2016-078B", "EPOCH": "2025-12-27T02:49:19.249824", "MEAN_MOTION": 15.50994926, "ECCENTRICITY": 0.0008788, "INCLINATION": 34.9346, "RA_OF_ASC_NODE": 287.5315, "ARG_OF_PERICENTER": 331.5011, "MEAN_ANOMALY": 28.523, "EPHEMERIS_TYPE": 0, "CLASSIFICATION_TYPE": "U", "NORAD_CAT_ID": 41885, "ELEMENT_SET_NO": 999, "REV_AT_EPOCH": 50217, "BSTAR": 0.00044934, "MEAN_MOTION_DOT": 0.00026999, "MEAN_MOTION_DDOT": 0}, "tle": {"line1": "1 41885U 16078B   25361.11758391  .00026999  00000+0  44934-3 0  9991", "line2": "2 41885  34.9346 287.5315 0008788 331.5011  28.5230 15.50994926502178"}}, "geometry": {"type": "Point", "coordinates": [-166.94562007313422, -34.88103243154416]}}, {"type": "Feature", "properties": {"norad_id": 41886, "name": "CYGFM02", "group": "weather", "lat": -3.0150838851781905, "lon": -80.24310031148337, "alt_km": 402.25358386215794, "timestamp": "2025-12-27T08:36:18.008616+00:00", "meta": {"OBJECT_NAME": "CYGFM02", "OBJECT_ID": "2016-078C", "EPOCH": "2025-12-27T03:59:50.972352", "MEAN_MOTION": 15.5242311, "ECCENTRICITY": 0.0010354, "INCLINATION": 34.9434, "RA_OF_ASC_NODE": 285.3465, "ARG_OF_PERICENTER": 333.9201, "MEAN_ANOMALY": 26.0999, "EPHEMERIS_TYPE": 0, "CLASSIFICATION_TYPE": "U", "NORAD_CAT_ID": 41886, "ELEMENT_SET_NO": 999, "REV_AT_EPOCH": 50231, "BSTAR": 0.00045944, "MEAN_MOTION_DOT": 0.0002909, "MEAN_MOTION_DDOT": 0}, "tle": {"line1": "1 41886U 16078C   25361.16656218  .00029090  00000+0  45944-3 0  9999", "line2": "2 41886  34.9434 285.3465 0010354 333.9201  26.0999 15.52423110502313"}}, "geometry": {"type": "Point", "coordinates": [-80.24310031148337, -3.0150838851781905]}}, {"type": "Feature", "properties": {"norad_id": 41887, "name": "CYGFM01", "group": "weather", "lat": -22.683817209620436, "lon": -82.92512240355478, "alt_km": 414.95390855145433, "timestamp": "2025-12-27T08:36:18.008627+00:00", "meta": {"OBJECT_NAME": "CYGFM01", "OBJECT_ID": "2016-078D", "EPOCH": "2025-12-27T04:08:44.941632", "MEAN_MOTION": 15.48790077, "ECCENTRICITY": 0.0010091, "INCLINATION": 34.9433, "RA_OF_ASC_NODE": 315.062, "ARG_OF_PERICENTER": 299.465, "MEAN_ANOMALY": 60.5065, "EPHEMERIS_TYPE": 0, "CLASSIFICATION_TYPE": "U", "NORAD_CAT_ID": 41887, "ELEMENT_SET_NO": 999, "REV_AT_EPOCH": 50194, "BSTAR": 0.00043516, "MEAN_MOTION_DOT": 0.00024178, "MEAN_MOTION_DDOT": 0}, "tle": {"line1": "1 41887U 16078D   25361.17274238  .00024178  00000+0  43516-3 0  9994", "line2": "2 41887  34.9433 315.0620 0010091 299.4650  60.5065 15.48790077501948"}}, "geometry": {"type": "Point", "coordinates": [-82.92512240355478, -22.683817209620436]}}, {"type": "Feature", "properties": {"norad_id": 41888, "name": "CYGFM08", "group": "weather", "lat": 32.74619015094997, "lon": 3.735113955821265, "alt_km": 412.5428967231164, "timestamp": "2025-12-27T08:36:18.008638+00:00", "meta": {"OBJECT_NAME": "CYGFM08", "OBJECT_ID": "2016-078E", "EPOCH": "2025-12-27T03:39:50.071968", "MEAN_MOTION": 15.50034752, "ECCENTRICITY": 0.0011163, "INCLINATION": 34.9459, "RA_OF_ASC_NODE": 298.0141, "ARG_OF_PERICENTER": 323.1952, "MEAN_ANOMALY": 36.8003, "EPHEMERIS_TYPE": 0, "CLASSIFICATION_TYPE": "U", "NORAD_CAT_ID": 41888, "ELEMENT_SET_NO": 999, "REV_AT_EPOCH": 50217, "BSTAR": 0.00045658, "MEAN_MOTION_DOT": 0.00026534, "MEAN_MOTION_DDOT": 0}, "tle": {"line1": "1 41888U 16078E   25361.15266287  .00026534  00000+0  45658-3 0  9995", "line2": "2 41888  34.9459 298.0141 0011163 323.1952  36.8003 15.50034752502174"}}, "geometry": {"type": "Point", "coordinates": [3.735113955821265, 32.74619015094997]}}, {"type": "Feature", "properties": {"norad_id": 41890, "name": "CYGFM07", "group": "weather", "lat": 34.92762443604035, "lon": 15.235531977594478, "alt_km": 410.4348408561591, "timestamp": "2025-12-27T08:36:18.008649+00:00", "meta": {"OBJECT_NAME": "CYGFM07", "OBJECT_ID": "2016-078G", "EPOCH": "2025-12-27T03:35:06.057024", "MEAN_MOTION": 15.50632394, "ECCENTRICITY": 0.0008969, "INCLINATION": 34.9473, "RA_OF_ASC_NODE": 286.9349, "ARG_OF_PERICENTER": 338.1364, "MEAN_ANOMALY": 21.8975, "EPHEMERIS_TYPE": 0, "CLASSIFICATION_TYPE": "U", "NORAD_CAT_ID": 41890, "ELEMENT_SET_NO": 999, "REV_AT_EPOCH": 50219, "BSTAR": 0.00044686, "MEAN_MOTION_DOT": 0.00026503, "MEAN_MOTION_DDOT": 0}, "tle": {"line1": "1 41890U 16078G   25361.14937566  .00026503  00000+0  44686-3 0  9998", "line2": "2 41890  34.9473 286.9349 0008969 338.1364  21.8975 15.50632394502192"}}, "geometry": {"type": "Point", "coordinates": [15.235531977594478, 34.92762443604035]}}, {"type": "Feature", "properties": {"norad_id": 41891, "name": "CYGFM03", "group": "weather", "lat": -34.4538106757325, "lon": -151.81481274277286, "alt_km": 413.17696521783637, "timestamp": "2025-12-27T08:36:18.008659+00:00", "meta": {"OBJECT_NAME": "CYGFM03", "OBJECT_ID": "2016-078H", "EPOCH": "2025-12-27T04:19:02.954784", "MEAN_MOTION": 15.50526979, "ECCENTRICITY": 0.0008857, "INCLINATION": 34.9429, "RA_OF_ASC_NODE": 288.6623, "ARG_OF_PERICENTER": 324.6676, "MEAN_ANOMALY": 35.3458, "EPHEMERIS_TYPE": 0, "CLASSIFICATION_TYPE": "U", "NORAD_CAT_ID": 41891, "ELEMENT_SET_NO": 999, "REV_AT_EPOCH": 50217, "BSTAR": 0.00045233, "MEAN_MOTION_DOT": 0.00026727, "MEAN_MOTION_DDOT": 0}, "tle": {"line1": "1 41891U 16078H   25361.17989531  .00026727  00000+0  45233-3 0  9998", "line2": "2 41891  34.9429 288.6623 0008857 324.6676  35.3458 15.50526979502175"}}, "geometry": {"type": "Point", "coordinates": [-151.81481274277286, -34.4538106757325]}}]}